SPACEMOBILE-006         
1 67232U 25309A   26080.10028443  .00003315  00000+0  17584-3 0  9996
2 67232  52.9984  14.9556 0009678 216.0843 143.9498 15.18100516 13216
